IRIDIUM 155             
1 43573U 18061E   23263.56076936  .00000402  00000+0  13660-3 0  9990
2 43573  86.3931 114.9173 0002266  81.3093 278.8359 14.34220901269937
IRIDIUM 154             
1 43574U 18061F   23263.61149998  .00000389  00000+0  13175-3 0  9991
2 43574  86.3936 114.9810 0002109  93.6649 266.4787 14.34222204269992
IRIDIUM 163             
1 43575U 18061G   23263.59247541  .00000391  00000+0  13259-3 0  9998
2 43575  86.3934 114.9354 0002038  88.8482 271.2947 14.34222039269961
IRIDIUM 156             
1 43576U 18061H   23263.07873351  .00000012  00000+0 -27074-5 0  9999
2 43576  86.3932 115.1558 0001996  78.8344 281.3076 14.34218096269881
IRIDIUM 164             
1 43577U 18061J   23263.61784773  .00000394  00000+0  13362-3 0  9994
2 43577  86.3935 114.9556 0001842  86.1445 273.9961 14.34220646270004
IRIDIUM 159             
1 43578U 18061K   23263.58613903  .00000387  00000+0  13129-3 0  9990
2 43578  86.3933 114.9267 0002153  87.1101 273.0341 14.34220647269965
IRIDIUM 180             
1 43922U 19002A   23263.51586262  .00000520  00000+0  17880-3 0  9996
2 43922  86.3957  51.7843 0001956  97.2537 262.8881 14.34214760245561
IRIDIUM 176             
1 43923U 19002B   23263.47044724  .00001861  00000+0  29115-3 0  9997
2 43923  86.6086  51.8377 0002232  89.8406 270.3067 14.72257995252018
IRIDIUM 168             
1 43924U 19002C   23263.50952415  .00000327  00000+0  10980-3 0  9993
2 43924  86.3959  51.8359 0002029  94.7532 265.3896 14.34216748245547
IRIDIUM 173             
1 43925U 19002D   23263.49684549  .00000170  00000+0  53587-4 0  9999
2 43925  86.3957  51.7712 0002116  93.6643 266.4795 14.34217613245526
IRIDIUM 169             
1 43926U 19002E   23263.55334521  .00000201  00000+0  59214-4 0  9997
2 43926  86.4168  83.3818 0004916  59.3788 300.7895 14.38605328246363
IRIDIUM 172             
1 43927U 19002F   23263.49049399  .00000467  00000+0  15978-3 0  9999
2 43927  86.3957  51.7788 0002082  95.6017 264.5416 14.34218252245530
IRIDIUM 175             
1 43928U 19002G   23263.39627008  .00001990  00000+0  31168-3 0  9999
2 43928  86.1524  40.3177 0002216  92.1425 268.0045 14.72243049251997
IRIDIUM 171             
1 43929U 19002H   23263.47146641  .00000055  00000+0  12488-4 0  9994
2 43929  86.3965  51.9821 0001969  95.2647 264.8774 14.34215684245524
IRIDIUM 170             
1 43930U 19002J   23263.47661403  .00001861  00000+0  29119-3 0  9998
2 43930  86.6088  51.8400 0002265  87.6406 272.5071 14.72254028252021
IRIDIUM 167             
1 43931U 19002K   23263.32558693  .00000519  00000+0  17807-3 0  9999
2 43931  86.3956  51.8612 0001946  94.9482 265.1936 14.34220697245504
IRIDIUM 181             
1 56726U 23068S   23263.56457942  .00000200  00000+0  53258-4 0  9991
2 56726  86.8569  92.4025 0001228  54.7285 305.4031 14.43573126 18096
IRIDIUM 177             
1 56727U 23068T   23263.54836515  .00000819  00000+0  10432-3 0  9999
2 56727  86.1926  83.8475 0002177  97.5582 262.5887 14.80224700 18341
IRIDIUM 174             
1 56728U 23068U   23263.54293184  .00000817  00000+0  10406-3 0  9998
2 56728  86.1933  83.9319 0002405  88.9049 271.2448 14.80224488 18347
IRIDIUM 178             
1 56729U 23068V   23263.53721338  .00000770  00000+0  97876-4 0  9990
2 56729  86.5727  88.5777 0002512  93.4494 266.7014 14.80214983 18343
IRIDIUM 179             
1 56730U 23068W   23263.53182070  .00000768  00000+0  97684-4 0  9990
2 56730  86.6735  89.3070 0002431  95.2034 264.9465 14.80215102 18344
